VDNH-80                 
1 44392U 19038G   21241.84059462  .00001927  00000-0  10954-3 0  9992
2 44392  97.5939 206.2122 0022495  61.6083 355.8630 15.13906849118698
D-STAR ONE (LIGHTSAT)   
1 44393U 19038H   21241.43561862  .00004543  00000-0  25371-3 0  9996
2 44393  97.5944 205.6803 0022988  63.2521 297.1059 15.13814719118828
AMGU-1 (AMURSAT)        
1 44394U 19038J   21241.84804541  .00001841  00000-0  10504-3 0  9996
2 44394  97.5923 206.0343 0023045  61.9080 298.4485 15.13812996118888
DOT-1                   
1 44399U 19038P   21241.78607520  .00002523  00000-0  14635-3 0  9999
2 44399  97.5970 205.3603 0025903  65.3140 295.0784 15.12822853118827
SOKRAT                  
1 44404U 19038U   21241.80982075  .00004465  00000-0  25048-3 0  9997
2 44404  97.5935 205.7526 0023293  63.6594 296.7025 15.13649429118864
LUCKY-7                 
1 44406U 19038W   21241.79387453  .00002634  00000-0  15136-3 0  9999
2 44406  97.5963 205.6055 0025646  58.3730 301.9998 15.13115459118836
D-STAR ONE (EXOCONNECT) 
1 44410U 19038AA  21241.79832669  .00007842  00000-0  42648-3 0  9992
2 44410  97.5904 206.0796 0022909  61.4763 298.8772 15.14521827118894
NARSSCUBE-2             
1 44415U 19022E   21241.78558689  .00005004  00000-0  17466-3 0  9994
2 44415  51.6411  85.1048 0011884  88.2959 271.9383 15.31316125115386
KRAKSAT                 
1 44427U 98067QM  21241.55929514  .00042183  00000-0  32707-3 0  9991
2 44427  51.6416 287.6940 0002247 135.9699 340.0812 15.71387482122952
ENTRYSAT                
1 44429U 98067QP  21222.50999637  .13114982  12639-4  26452-3 0  9996
2 44429  51.6073 351.2662 0008582 295.0172  64.9966 16.46454560120409
NARSSCUBE-1             
1 44792U 98067QX  21241.45511105  .00100073  00000-0  75551-3 0  9995
2 44792  51.6342 299.1585 0000654 253.3690 106.7236 15.71661227101028
DUCHIFAT-3              
1 44854U 19089C   21241.77235894  .00000726  00000-0  64248-4 0  9990
2 44854  36.9657  27.0098 0008986   2.9656 357.1157 14.99590989 94115
OPS-SAT                 
1 44878U 19092F   21241.75526384  .00002298  00000-0  12050-3 0  9994
2 44878  97.4776  64.1977 0012090 276.6175  83.3682 15.16723291 93945
FLORIPASAT-1            
1 44885U 19093G   21241.79597582  .00000364  00000-0  52129-4 0  9999
2 44885  97.9234 320.5122 0016005  64.8052 295.4819 14.82358898 91630
HUSKYSAT-1 (HO-107)     
1 45119U 19071J   21241.47891701  .00011662  00000-0  33398-3 0  9990
2 45119  51.6418  42.6671 0011118 191.5043 168.5687 15.36318603 88393
G-SAT                   
1 45597U 98067RK  21241.48930808  .00045248  00000-0  55129-3 0  9998
2 45597  51.6402 322.0023 0002910 258.9560 101.1106 15.60035980 76009
QUETZAL-1               
1 45598U 98067RL  21241.47918396  .00054358  00000-0  59488-3 0  9990
2 45598  51.6396 319.6769 0001879 316.8137  43.2710 15.62745896 75965
BY70-2                  
1 45857U 20042B   21241.73633645  .00001240  00000-0  18224-3 0  9991
2 45857  97.9812 316.7223 0010209 346.1996  13.8938 14.77222809 62362
SALSAT                  
1 46495U 20068K   21241.53652399 -.00000060  00000-0  17131-6 0  9992
2 46495  97.6960 178.6129 0016405 178.0986 182.0311 15.03523659 50310
NETSAT-4                
1 46504U 20068U   21241.57451550  .00001427  00000-0  11284-3 0  9990
2 46504  97.6906 177.8264 0012753 233.0811 126.9291 15.02189626 50217
NETSAT-3                
1 46505U 20068V   21241.58306928  .00000791  00000-0  64769-4 0  9990
2 46505  97.6879 177.7961 0010801 247.9214 112.0920 15.02136815 50221
NETSAT-1                
1 46506U 20068W   21241.59113376 -.00000155  00000-0 -71900-5 0  9997
2 46506  97.6878 177.7758 0007746 267.0088  93.0295 15.02098811 50227
NETSAT-2                
1 46507U 20068X   21241.59586685 -.00000280  00000-0 -16753-4 0  9998
2 46507  97.6897 177.7812 0006221 274.4036  85.6492 15.02081319 50177
BY70-3                  
1 46839U 20079N   21241.77587532  .00004484  00000-0  13778-3 0  9991
2 46839  97.2355 314.1839 0005574 311.7126 168.4117 15.34195392 45441
SPOC                    
1 46921U 98067RR  21241.52460141  .00029426  00000-0  42208-3 0  9997
2 46921  51.6424 331.2610 0002409   1.6184 358.4815 15.55886384 46239
BOBCAT-1                
1 46922U 98067RS  21241.76363494  .00051792  00000-0  67040-3 0  9999
2 46922  51.6424 327.6363 0002537   6.5400 353.5625 15.58378253 46252
NEUTRON-1               
1 46923U 98067RT  21241.54615497  .00028672  00000-0  41342-3 0  9997
2 46923  51.6423 331.4019 0002434  13.1198 346.9856 15.55758656 46266
1998-067RU              
1 46924U 98067RU  21240.48783923  .00074061  00000-0  75929-3 0  9991
2 46924  51.6387 328.8071 0003064  15.1667 344.9419 15.64279092 46172
DESCENT                 
1 46927U 98067RX  21241.55155136  .00029293  00000-0  42209-3 0  9994
2 46927  51.6422 331.4342 0002591  29.3986 330.7151 15.55764681 46169
UVSQ-SAT                
1 47438U 21006AB  21241.71526911  .00002697  00000-0  15489-3 0  9991
2 47438  97.4814 301.6118 0012164 198.1259 161.9540 15.13313054 33132
SOMP2B                  
1 47445U 21006AJ  21241.73754233  .00002525  00000-0  14594-3 0  9997
2 47445  97.4787 301.5017 0011684 201.8909 158.1825 15.13145012 33137
WARP-01                 
1 47924U 98067SA  21241.54807597  .00039651  00000-0  61215-3 0  9993
2 47924  51.6427 336.6386 0005246  17.6962 342.4211 15.53712381 26153
RSP-01                  
1 47925U 98067SB  21241.69326780  .00031647  00000-0  50041-3 0  9992
2 47925  51.6431 336.1186 0002213 324.7584  35.3260 15.53171773 26151
TAUSAT-1                
1 47926U 98067SC  21241.56710994  .00043859  00000-0  66801-3 0  9992
2 47926  51.6419 336.0226 0003312 319.6953  40.3792 15.54047391 26139
TSURU                   
1 47927U 98067SD  21241.51571223  .00027594  00000-0  44262-3 0  9993
2 47927  51.6433 337.1823 0002144 321.7289  38.3549 15.52847790 26124
STARS-EC                
1 47928U 98067SE  21241.81338079  .00045085  00000-0  69555-3 0  9994
2 47928  51.6424 335.4130 0005935  21.6032 338.5208 15.53669097 26153
MAYA-2                  
1 47929U 98067SF  21241.51241834  .00027895  00000-0  44691-3 0  9997
2 47929  51.6431 337.1597 0002178 317.6514  42.4308 15.52875041 26088
HIROGARI (OPUSAT-II)    
1 47930U 98067SG  21241.52027223  .00047959  00000-0  72598-3 0  9994
2 47930  51.6429 336.4659 0002360 318.3707  41.7104 15.54178784 26137
GUARANISAT-1            
1 47931U 98067SH  21241.51090395  .00027882  00000-0  44644-3 0  9998
2 47931  51.6436 337.1524 0002258 316.7372  43.3440 15.52891779 26125
DIY-1 (ARDUIQUBE)       
1 47963U 21022AH  21241.44651872  .00008591  00000-0  56531-3 0  9999
2 47963  97.5505 142.4783 0021430  57.9182 302.4122 15.07607659 22894
